{
  "norad_id": 64073,
  "name": "STARLINK-11729 [DTC]",
  "history": [
    {
      "epoch": "2026-04-14T16:23:08.316096Z",
      "apogee_km": 359.817126163206,
      "perigee_km": 353.2077412089857,
      "latitude_deg": 4.010268076844902e-05,
      "longitude_deg": 153.09904527800938,
      "height_km": 355.59971132951074,
      "semi_major_axis_km": 6734.649433686095,
      "eccentricity": 0.0004907,
      "inclination_deg": 42.9972,
      "raan_deg": 241.7393,
      "arg_perigee_deg": 281.9985,
      "mean_anomaly_deg": 78.0333,
      "mean_motion_rev_day": 15.70833922
    },
    {
      "epoch": "2026-04-15T15:16:31.943712Z",
      "apogee_km": 358.2359393704146,
      "perigee_km": 353.85871955626317,
      "latitude_deg": 1.1666383280759502e-05,
      "longitude_deg": 163.05981365548135,
      "height_km": 356.4255958688791,
      "semi_major_axis_km": 6734.184329463339,
      "eccentricity": 0.000325,
      "inclination_deg": 43.0,
      "raan_deg": 235.9886,
      "arg_perigee_deg": 253.9611,
      "mean_anomaly_deg": 106.0899,
      "mean_motion_rev_day": 15.70996662
    },
    {
      "epoch": "2026-04-16T11:06:48.404736Z",
      "apogee_km": 357.55546995564237,
      "perigee_km": 355.5498793705283,
      "latitude_deg": -3.0171462498946428e-05,
      "longitude_deg": -140.31003080338476,
      "height_km": 356.6186539785084,
      "semi_major_axis_km": 6734.6896746630855,
      "eccentricity": 0.0001489,
      "inclination_deg": 42.9953,
      "raan_deg": 231.0021,
      "arg_perigee_deg": 252.9465,
      "mean_anomaly_deg": 107.1239,
      "mean_motion_rev_day": 15.70819843
    },
    {
      "epoch": "2026-04-17T19:09:33.325632Z",
      "apogee_km": 357.7040456093873,
      "perigee_km": 354.961500139083,
      "latitude_deg": -2.454379681389112e-05,
      "longitude_deg": 89.64313203646248,
      "height_km": 356.1294521410904,
      "semi_major_axis_km": 6734.469772874235,
      "eccentricity": 0.00020362,
      "inclination_deg": 43.0025,
      "raan_deg": 222.9585,
      "arg_perigee_deg": 269.02,
      "mean_anomaly_deg": 91.0434,
      "mean_motion_rev_day": 15.70896782
    },
    {
      "epoch": "2026-04-18T18:02:57.026688Z",
      "apogee_km": 358.1156096704417,
      "perigee_km": 354.2501100708769,
      "latitude_deg": 4.080510973601371e-05,
      "longitude_deg": 99.60609205882162,
      "height_km": 355.2062154551897,
      "semi_major_axis_km": 6734.3198598706595,
      "eccentricity": 0.000287,
      "inclination_deg": 43.0006,
      "raan_deg": 217.2102,
      "arg_perigee_deg": 292.8391,
      "mean_anomaly_deg": 67.2174,
      "mean_motion_rev_day": 15.70949237
    },
    {
      "epoch": "2026-04-19T13:53:13.663104Z",
      "apogee_km": 358.27588022361397,
      "perigee_km": 354.43183284270435,
      "latitude_deg": -3.9241756700065745e-05,
      "longitude_deg": 156.23997173091615,
      "height_km": 356.54742817109957,
      "semi_major_axis_km": 6734.490856533159,
      "eccentricity": 0.0002854,
      "inclination_deg": 43.0018,
      "raan_deg": 212.2282,
      "arg_perigee_deg": 257.3791,
      "mean_anomaly_deg": 102.6757,
      "mean_motion_rev_day": 15.70889405
    }
  ]
}